STARLINK-36663
1 67919U 26036R   26061.16668981 -.01438931  00000+0 -54676-2 0  9999
2 67919  42.9955 295.8420 0001729 273.2860 292.4758 15.89427891  2435
